,Name,Address,Latitude,Longitude
0,Hotel Zeitgeist Vienna Hauptbahnhof,"Rieplstraße, 1100 Wien, Österreich, Wien, Wien 1100, AUT",48.1829645,16.3776709
1,Hotel Royal,"Singerstraße 3, 1010 Wien, Österreich, Wien, Wien 1010, AUT",48.2078727,16.3724042
2,Eurostars Embassy,"Landstraßer Hauptstraße 122, 1030 Wien, Österreich, Wien, Wien 1030, AUT",48.1964001,16.3958668
3,Hotel Wandl,"Petersplatz 9, 1010 Wien, Österreich, Wien, Wien 1010, AUT",48.2097026,16.3703902
4,City Rooms,"Daungasse 1, 1080 Wien, Österreich, Wien, Wien 1080, AUT",48.2133296,16.3471399
5,The Ring Vienna s Casual Luxury Hotel,"Kärntner Ring 8, 1010 Wien, Österreich, Wien, Wien 1010, AUT",48.2017091,16.3710205
6,Hotel ViennArt am Museumsquartier,"Breite Gasse 9, 1070 Wien, Österreich, Wien, Wien 1070, AUT",48.2035677,16.356445
7,Hilton Garden Inn Vienna South,"Hertha-Firnberg-Straße 5, 1100 Wien, Österreich, Wien, Wien 1100, AUT",48.1667886,16.344908
8,Austria Trend Parkhotel Sch nbrunn Wien,"Hietzinger Hauptstraße 10-16, 1130 Wien, Österreich, Wien, Wien 1130, AUT",48.1866506,16.3023375
9,Hollmann Beletage Design Boutique,"Köllnerhofgasse 6, 1010 Wien, Österreich, Wien, Wien 1010, AUT",48.2105156,16.3760717
10,Steigenberger Hotel Herrenhof,"Herrengasse 10, 1010 Wien, Österreich, Wien, Wien 1010, AUT",48.2097958,16.3658705
11,Hotel Corvinus,"Mariahilfer Straße 57-59, 1060 Wien, Österreich, Wien, Wien 1060, AUT",48.1990335,16.3525051
12,Rainers Hotel Vienna,"1100 Wien, Österreich, Wien, Wien 1100, AUT",48.1791893,16.3625367
13,Hotel Gallitzinberg,"Johann-Staud-Straße 32, 1160 Wien, Österreich, Wien, Wien 1160, AUT",48.2145071,16.2845042
14,The Guesthouse Vienna,"Führichgasse 10, 1010 Wien, Österreich, Wien, Wien 1010, AUT",48.2051299,16.369036
15,Mercure Hotel Raphael Wien,"Wallgasse 23, 1060 Wien, Österreich, Wien, Wien 1060, AUT",48.1919288,16.3391395
16,The Harmonie Vienna,"Harmoniegasse 5, 1090 Wien, Österreich, Wien, Wien 1090, AUT",48.2199427,16.3598984
17,BEST WESTERN PLUS Amedia Wien,"Landstraßer Hauptstraße 155, 1030 Wien, Österreich, Wien, Wien 1030, AUT",48.1923791,16.3994512
18,Arion Cityhotel Vienna und Appartements,"Hintschiggasse 1, 1100 Wien, Österreich, Wien, Wien 1100, AUT",48.1585332,16.3451115
19,Austria Trend Hotel Astoria Wien,"Kärntner Straße 34, 1010 Wien, Österreich, Wien, Wien 1010, AUT",48.2044655,16.3702399
20,Hotel Boltzmann,"Boltzmanngasse 8, 1090 Wien, Österreich, Wien, Wien 1090, AUT",48.2216779,16.3567111
21,The Levante Parliament A Design Hotel,"Josefsgasse 1, 1080 Wien, Österreich, Wien, Wien 1080, AUT",48.2083518,16.354532
22,Hotel Beethoven Wien,"Papagenogasse 6, 1060 Wien, Österreich, Wien, Wien 1060, AUT",48.2000165,16.3641802
23,Courtyard by Marriott Vienna Prater Messe,"Trabrennstraße 4, 1020 Wien, Österreich, Wien, Wien 1020, AUT",48.2130607,16.4133973
24,Simm s Hotel,"Rinnböckstraße 58-60, 1110 Wien, Österreich, Wien, Wien 1110, AUT",48.1790835,16.4116997
25,Hotel Rathaus Wein Design,"Lange Gasse 13, 1080 Wien, Österreich, Wien, Wien 1080, AUT",48.2075294,16.3525967
26,InterContinental Wien,"Johannesgasse 28, 1030 Wien, Österreich, Wien, Wien 1030, AUT",48.2019865,16.3789934
27,JUFA Hotel Wien,"Mautner-Markhof-Gasse 50-54, 1110 Wien, Österreich, Wien, Wien 1110, AUT",48.1756283,16.4200957
28,Hotel de France Wien,"Maria-Theresien-Straße 4, 1010 Wien, Österreich, Wien, Wien 1010, AUT",48.2146623,16.3627994
29,Novotel Wien City,"Aspernbrückengasse 1, 1020 Wien, Österreich, Wien, Wien 1020, AUT",48.2134246,16.3831309
30,Hotel Imlauer Wien,"Rotensterngasse 10, 1020 Wien, Österreich, Wien, Wien 1020, AUT",48.2176776,16.3821364
31,Graben Hotel,"Dorotheergasse 3, 1010 Wien, Österreich, Wien, Wien 1010, AUT",48.2078955,16.3701084
32,Hotel Das Tigra,"Tiefer Graben 14, 1010 Wien, Österreich, Wien, Wien 1010, AUT",48.2121772,16.3680771
33,Hotel Mercure Wien City,"Hollandstraße 3, 1020 Wien, Österreich, Wien, Wien 1020, AUT",48.2152663,16.376103
34,NH Danube City,"Wagramer Straße 21, 1220 Wien, Österreich, Wien, Wien 1220, AUT",48.2353789,16.4219737
35,Hotel Landhaus Fuhrgassl Huber,"Rathstraße 24, 1190 Wien, Österreich, Wien, Wien 1190, AUT",48.2508693,16.304957
36,Mercure Josefshof Wien,"Josefsgasse 4-6, 1080 Wien, Österreich, Wien, Wien 1080, AUT",48.2085627,16.3541687
37,Hotel Am Parkring,"Liebenberggasse 6, 1010 Wien, Österreich, Wien, Wien 1010, AUT",48.2056333,16.3778615
38,Fleming s Conference Hotel Wien,"Neubaugürtel 26, 1070 Wien, Österreich, Wien, Wien 1070, AUT",48.1995177,16.3388225
39,Am Spiegeln,"Johann-Hörbiger-Gasse 30, 1230 Wien, Österreich, Wien, Wien 1230, AUT",48.1537005,16.2825822
40,Imperial Riding School Renaissance Vienna Hotel,"Ungargasse 69, 1030 Wien, Österreich, Wien, Wien 1030, AUT",48.1966396,16.3863822
41,Leonardo Hotel Vienna,"Mariahilfer Gürtel 30, 1060 Wien, Österreich, Wien, Wien 1060, AUT",48.1945297,16.340327
42,Mercure Wien Zentrum,"Fleischmarkt 1a, 1010 Wien, Österreich, Wien, Wien 1010, AUT",48.2114087,16.3746469
43,Schlosshotel R mischer Kaiser,"Annagasse 16, 1010 Wien, Österreich, Wien, Wien 1010, AUT",48.2040859,16.3725046
44,Hilton Vienna Danube Waterfront,"Handelskai 269, 1020 Wien, Österreich, Wien, Wien 1020, AUT",48.2140659,16.4217627
45,Hotel Mailberger Hof,"Annagasse 7, 1010 Wien, Österreich, Wien, Wien 1010, AUT",48.204183,16.3726664
46,Atlantis Hotel Vienna,"Wurzbachgasse 21, 1150 Wien, Österreich, Wien, Wien 1150, AUT",48.2037451,16.3356767
47,Hotel K nig von Ungarn,"Schulerstraße 10, 1010 Wien, Österreich, Wien, Wien 1010, AUT",48.2082215,16.3751842
48,Saint SHERMIN bed breakfast champagne,"Rilkeplatz 7, 1040 Wien, Österreich, Wien, Wien 1040, AUT",48.1978409,16.367087
49,Hotel Imperial A Luxury Collection Hotel,"Kärntner Ring 16, 1010 Wien, Österreich, Wien, Wien 1010, AUT",48.2012505,16.3731255
50,Strandhotel Alte Donau,"Wagramer Straße 51, 1220 Wien, Österreich, Wien, Wien 1220, AUT",48.2390022,16.4292329
51,Hotel Eitlj rg,"Filmteichstraße 5, 1100 Wien, Österreich, Wien, Wien 1100, AUT",48.1513676,16.4064709
52,Club Hotel Cortina,"Hietzinger Hauptstraße 132, 1130 Wien, Österreich, Wien, Wien 1130, AUT",48.1877942,16.2727214
53,Hotel Am Schubertring,"Schubertring 11, 1010 Wien, Österreich, Wien, Wien 1010, AUT",48.2017277,16.375463
54,Hotel Palais Strudlhof,"Pasteurgasse 1, 1090 Wien, Österreich, Wien, Wien 1090, AUT",48.2217697,16.3578738
55,Austria Trend Hotel Rathauspark Wien,"Rathausstraße 17, 1010 Wien, Österreich, Wien, Wien 1010, AUT",48.2133054,16.3567884
56,pentahotel Vienna,"Margaretenstraße 92, 1050 Wien, Österreich, Wien, Wien 1050, AUT",48.1899743,16.3567007
57,Hotel Stefanie,"Taborstraße 10, 1020 Wien, Österreich, Wien, Wien 1020, AUT",48.2142766,16.3801779
58,Hotel Amadeus,"Wildpretmarkt 5, 1010 Wien, Österreich, Wien, Wien 1010, AUT",48.2104468,16.3715781
59,Gartenhotel Altmannsdorf Hotel 1,"Hoffingergasse 26-28, 1120 Wien, Österreich, Wien, Wien 1120, AUT",48.1640345,16.3216061
60,DO CO Hotel Vienna,"Stephansplatz 12, 1010 Wien, Österreich, Wien, Wien 1010, AUT",48.2082385,16.3715725
61,Hotel Topazz,"Lichtensteg 3, 1010 Wien, Österreich, Wien, Wien 1010, AUT",48.210285,16.373579
62,FourSide Hotel Suites Vienna,"Freytaggasse 25, 1210 Wien, Österreich, Wien, Wien 1210, AUT",48.2565936,16.4031426
63,Palais Coburg Residenz,"Seilerstätte 3d, 1010 Wien, Österreich, Wien, Wien 1010, AUT",48.2058584,16.3766545
64,Arthotel ANA Prime,"Schönbrunner Straße 41, 1050 Wien, Österreich, Wien, Wien 1050, AUT",48.1925582,16.3576071
65,Hotel Kavalier,"Linzer Straße 163, 1140 Wien, Österreich, Wien, Wien 1140, AUT",48.1940487,16.2971831
66,Falkensteiner Hotel Wien Zentrum Schottenfeld,"Schottenfeldgasse 74, 1070 Wien, Österreich, Wien, Wien 1070, AUT",48.2048494,16.343618
67,Pakat Suites Hotel,"Mommsengasse 5, 1040 Wien, Österreich, Wien, Wien 1040, AUT",48.19183,16.3770876
68,NH Wien Belvedere,"Rennweg 12a, 1030 Wien, Österreich, Wien, Wien 1030, AUT",48.1954348,16.383429
69,IntercityHotel Wien,"Kaiserstraße 3, 1070 Wien, Österreich, Wien, Wien 1070, AUT",48.1965878,16.3413729
70,Palais Hansen Kempinski Vienna,"Zelinkagasse 1, 1010 Wien, Österreich, Wien, Wien 1010, AUT",48.2163149,16.3685103
71,Austria Trend Hotel Europa Wien,"Neuer Markt 3, 1010 Wien, Österreich, Wien, Wien 1010, AUT",48.2062103,16.3710387
72,NH Wien City,"Mariahilfer Straße 32, 1070 Wien, Österreich, Wien, Wien 1070, AUT",48.2002872,16.3547746
73,Lindner Hotel Am Belvedere,"Rennweg 12, 1030 Wien, Österreich, Wien, Wien 1030, AUT",48.1955998,16.3826989
74,Appartement Hotel an der Riemergasse,"Riemergasse 8, 1010 Wien, Österreich, Wien, Wien 1010, AUT",48.2071576,16.3765913
75,Mercure Grand Hotel Biedermeier Wien,"1030 Wien, Österreich, Wien, Wien 1030, AUT",48.2038688,16.3887039
76,Hotel Vienna,"Große Stadtgutgasse 31, 1020 Wien, Österreich, Wien, Wien 1020, AUT",48.2196722,16.3863588
77,Park Hyatt Vienna,"Bognergasse 4, 1010 Wien, Österreich, Wien, Wien 1010, AUT",48.2105243,16.3683592
78,Austria Trend Hotel Savoyen Vienna,"Rennweg 16, 1030 Wien, Österreich, Wien, Wien 1030, AUT",48.1950444,16.3844751
79,Austria Trend Hotel Ananas Wien,"Sonnenhofgasse 8-10, 1050 Wien, Österreich, Wien, Wien 1050, AUT",48.1915401,16.3546263
80,Falkensteiner Hotel Wien Margareten,"Margaretengürtel 142, 1050 Wien, Österreich, Wien, Wien 1050, AUT",48.1868107,16.3440157
81,NH Collection Wien Zentrum,"Mariahilfer Straße 78-80, 1070 Wien, Österreich, Wien, Wien 1070, AUT",48.1979979,16.3483314
82,Le Meridien Vienna,"Robert-Stolz-Platz 1, 1010 Wien, Österreich, Wien, Wien 1010, AUT",48.2027296,16.3661211
83,FourSide Hotel Vienna City Center,"Grieshofgasse 11, 1120 Wien, Österreich, Wien, Wien 1120, AUT",48.1825159,16.3322428
84,Austria Trend Hotel Bosei Wien,"Gutheil-Schoder-Gasse 7b, 1100 Wien, Österreich, Wien, Wien 1100, AUT",48.1629737,16.3404024
85,Arthotel ANA Westbahn,"Pelzgasse 1, 1150 Wien, Österreich, Wien, Wien 1150, AUT",48.1979514,16.336318
86,Aparthotel Adagio Vienna City,"Uraniastraße 2, 1010 Wien, Österreich, Wien, Wien 1010, AUT",48.2110845,16.3838405
87,Hotel Lam e,"Rotenturmstraße 15, 1010 Wien, Österreich, Wien, Wien 1010, AUT",48.2102677,16.3741269
88,Courtyard by Marriott Vienna Schoenbrunn,"Schönbrunner Schlossstraße 38-40, 1120 Wien, Österreich, Wien, Wien 1120, AUT",48.184732,16.3211959
89,Hilton Vienna,"Am Stadtpark 1, 1030 Wien, Österreich, Wien, Wien 1030, AUT",48.2062268,16.3833767
90,Vienna Marriott Hotel,"Weihburggasse 29, 1010 Wien, Österreich, Wien, Wien 1010, AUT",48.2050967,16.3770928
91,Hotel Schild,"Neustift am Walde 95, 1190 Wien, Österreich, Wien, Wien 1190, AUT",48.251195,16.2989165
92,Holiday Inn Vienna City,"Margaretenstraße 53, 1050 Wien, Österreich, Wien, Wien 1050, AUT",48.1935593,16.3616098
93,Sofitel Vienna Stephansdom,"Praterstraße 7, 1020 Wien, Österreich, Wien, Wien 1020, AUT",48.212857,16.37986
94,Hotel Ambassador,"Kärntner Straße 22, 1010 Wien, Österreich, Wien, Wien 1010, AUT",48.2057193,16.3710878
95,Der Wilhelmshof,"Kleine Stadtgutgasse 4, 1020 Wien, Österreich, Wien, Wien 1020, AUT",48.2185837,16.3881339
96,Best Western Hotel Pension Arenberg Wien Zentrum,"Wiesingerstraße 10, 1010 Wien, Österreich, Wien, Wien 1010, AUT",48.2107358,16.382147
97,Hotel Domizil,"Schulerstraße 14, 1010 Wien, Österreich, Wien, Wien 1010, AUT",48.2080479,16.375612
98,Hotel Nestroy Wien,"Rotensterngasse 7a, 1020 Wien, Österreich, Wien, Wien 1020, AUT",48.2178332,16.3821636
99,Best Western Premier Kaiserhof Wien,"Frankenberggasse 10, 1040 Wien, Österreich, Wien, Wien 1040, AUT",48.1975497,16.3686397
