,Name,Address,Latitude,Longitude
100,Barcel Milan,"Via Cesare Musatti, 8, 20157 Milano MI, Italia, Milano, Lombardia 20157, ITA",45.51152,9.1241306
101,Brunelleschi Hotel,"Via Flavio Baracchini, 10, 20122 Milano MI, Italia, Milano, Lombardia 20122, ITA",45.461177,9.191047
102,Windsor Hotel Milano,"Viale Monte Santo, 6, 20124 Milano MI, Italia, Milano, Lombardia 20124, ITA",45.4794587,9.1951427
103,Hotel Cavour,"Via Fatebenefratelli, 21, 20121 Milano MI, Italia, Milano, Lombardia 20121, ITA",45.4726942,9.1943911
104,Hotel Clerici,"Via Clerici, 5, 20121 Milano MI, Italia, Milano, Lombardia 20121, ITA",45.4667717,9.1871001
105,The Yard Milano,"Piazza 24 Maggio, 8, 20123 Milano MI, Italia, Milano, Lombardia 20123, ITA",45.453152,9.179172
106,Starhotels Business Palace,"Via Carlo Boncompagni, 55/1, 20139 Milano MI, Italia, Milano, Lombardia 20139, ITA",45.43784,9.230901
107,Best Western Hotel Mirage,"Viale Certosa, 106, 20156 Milano MI, Italia, Milano, Lombardia 20156, ITA",45.4947129,9.1418864
108,NH Collection Milano President,"Largo Augusto, 10, 20122 Milano MI, Italia, Milano, Lombardia 20122, ITA",45.4630685,9.1979367
109,Hotel Auriga,"Galleria delle Carrozze, 20124 Milano MI, Italia, Milano, Lombardia 20124, ITA",45.4858877,9.2042827
110,Hotel Marconi,"Piazza 4 Novembre, 3, 20124 Milano MI, Italia, Milano, Lombardia 20124, ITA",45.4868744,9.2018407
111,Mokinba Hotels King,"20123 Milano MI, Italia, Milano, Lombardia 20123, ITA",45.4656023,9.1778675
112,Idea Hotel Milano San Siro,"Via Gaetano Airaghi, 127, 20019 Settimo Milanese MI, Italia, Settimo Milanese, Lombardia 20019, ITA",45.4720654,9.0777871
113,Bulgari Hotel Milano,"Via Fratelli Gabba, 7, 20121 Milano MI, Italia, Milano, Lombardia 20121, ITA",45.4701334,9.1897405
114,Grand Hotel et de Milan,"Via Alessandro Manzoni, 29, 20121 Milano MI, Italia, Milano, Lombardia 20121, ITA",45.4699058,9.1925024
115,Qualys Hotel Nasco,"Via Leon Battista Alberti, 20149 Milano MI, Italia, Milano, Lombardia 20149, ITA",45.4848809,9.1596461
116,Meli Milano,"Via Masaccio, 19, 20149 Milano MI, Italia, Milano, Lombardia 20149, ITA",45.4792738,9.1459546
117,Admiral Hotel,"Via Domodossola, 16, 20145 Milano MI, Italia, Milano, Lombardia 20145, ITA",45.480515,9.160063
118,Mokinba Hotels Baviera,"Via Panfilo Castaldi, 7, 20124 Milano MI, Italia, Milano, Lombardia 20124, ITA",45.4782808,9.1997755
119,Novotel Milano Linate Aeroporto,"Via Mecenate, 20138 Milano MI, Italia, Milano, Lombardia 20138, ITA",45.4481878,9.2570459
120,Radisson Blu Hotel Milan,"Via Villapizzone, 24, 20156 Milano MI, Italia, Milano, Lombardia 20156, ITA",45.500667,9.1445874
121,IH Hotels Milano Watt 13,"Via Giacomo Watt, 15, 20143 Milano MI, Italia, Milano, Lombardia 20143, ITA",45.443791,9.152947
122,Senato Hotel Milano,"Via Senato, 22, 20121 Milano MI, Italia, Milano, Lombardia 20121, ITA",45.4714062,9.1965303
123,Best Western Hotel Major,"Viale Isonzo, 2, 20135 Milano MI, Italia, Milano, Lombardia 20135, ITA",45.4472099,9.2090967
124,TownHouse Galleria,"Via Silvio Pellico, 8, 20121 Milano MI, Italia, Milano, Lombardia 20121, ITA",45.4657842,9.1895321
125,Nu Hotel,"Via Feltre, 30, 20132 Milano MI, Italia, Milano, Lombardia 20132, ITA",45.4911829,9.2393614
126,Leonardo Hotel Milan City Center,"Via Messina, 10, 20154 Milano MI, Italia, Milano, Lombardia 20154, ITA",45.482442,9.1756982
127,UNA Hotel Century,"Via Fabio Filzi, 20124 Milano MI, Italia, Milano, Lombardia 20124, ITA",45.4841371,9.2001623
128,Hotel Portello Gruppo Minihotel,"Via Guglielmo Silva, 12, 20149 Milano MI, Italia, Milano, Lombardia 20149, ITA",45.4802503,9.1494925
129,Hotel Silver,"Via Riccardo Lombardi, 9, 20153 Milano MI, Italia, Milano, Lombardia 20153, ITA",45.4589731,9.0687506
130,Hotel Lombardia,"Viale Lombardia, 74, 20131 Milano MI, Italia, Milano, Lombardia 20131, ITA",45.4872511,9.2237385
131,UNA Hotel Scandinavia,"Via Losanna, 20, 20154 Milano MI, Italia, Milano, Lombardia 20154, ITA",45.4859983,9.1637603
132,Hotel Principe Di Savoia,"Via Galileo Galilei, 10, 20124 Milano MI, Italia, Milano, Lombardia 20124, ITA",45.479888,9.1962982
133,Hotel Carrobbio,"Via Medici, 3, 20123 Milano MI, Italia, Milano, Lombardia 20123, ITA",45.4606597,9.1810947
134,DoubleTree By Hilton Milan,"Via Ludovico di Breme, 60, 20156 Milano MI, Italia, Milano, Lombardia 20156, ITA",45.5005657,9.1383663
135,Bianca Maria Palace Hotel,"Viale Bianca Maria, 4, 20129 Milano MI, Italia, Milano, Lombardia 20129, ITA",45.4635445,9.2068649
136,Hotel D Este,"Viale Bligny, 23, 20136 Milano MI, Italia, Milano, Lombardia 20136, ITA",45.4510397,9.1920911
137,Hotel Liberty,"Viale Bligny, 56, 20136 Milano MI, Italia, Milano, Lombardia 20136, ITA",45.4508673,9.1948659
138,Hotel VIU Milan,"Via Ugo Bassi, 1A, 20159 Milano MI, Italia, Milano, Lombardia 20159, ITA",45.488764,9.183057
139,Starhotels Echo,"Via Mauro Macchi, 45, 20124 Milano MI, Italia, Milano, Lombardia 20124, ITA",45.4847398,9.2072916
140,Hotel Da Vinci,"Via Senigallia, 6, 20161 Milano MI, Italia, Milano, Lombardia 20161, ITA",45.5331372,9.1711019
141,Ca Bianca Hotel Corte Del Naviglio,"Via Lodovico il Moro, 115, 20143 Milano MI, Italia, Milano, Lombardia 20143, ITA",45.443502,9.1377081
142,UNA Hotel Cusani,"Via Cusani, 13, 20121 Milano MI, Italia, Milano, Lombardia 20121, ITA",45.4684251,9.1834161
143,NH Milano Palazzo Moscova,"Viale Monte Grappa, 12A, 20124 Milano MI, Italia, Milano, Lombardia 20124, ITA",45.480968,9.189977
144,Antares Hotel Rubens,"Via Pietro Rubens, 21, 20148 Milano MI, Italia, Milano, Lombardia 20148, ITA",45.4670579,9.1427822
145,Best Western Madison Hotel,"Via Privata Leopoldo Gasparotto, 8, 20124 Milano MI, Italia, Milano, Lombardia 20124, ITA",45.4881471,9.2016609
146,Hotel Mozart,"Piazza Gerusalemme, 6, 20154 Milano MI, Italia, Milano, Lombardia 20154, ITA",45.4834133,9.1666361
147,Novotel Milano Nord Ca Granda,"Via Angelo De Gasperis, 20162 Milano MI, Italia, Milano, Lombardia 20162, ITA",45.506502,9.1965192
148,Hotel Capitol Milano,"Via Domenico Cimarosa, 6, 20144 Milano MI, Italia, Milano, Lombardia 20144, ITA",45.4661781,9.1588367
149,Hotel Magna Pars Small Luxury Hotels of the World,"Via Vincenzo Forcella, 6, 20144 Milano MI, Italia, Milano, Lombardia 20144, ITA",45.4524879,9.1669784
150,Hotel Spadari Al Duomo,"Via Spadari, 11, 20123 Milano MI, Italia, Milano, Lombardia 20123, ITA",45.463579,9.1869092
