,Name,Address,Latitude,Longitude
600,Residence Henri IV,"50 Rue des Bernardins, 75005 Paris, France, Paris, Île-de-France 75005, FRA",48.8481917,2.3490316
601,Terrass H tel Montmartre by MH,"14 Rue Joseph de Maistre, 75018 Paris, France, Paris, Île-de-France 75018, FRA",48.8865626,2.3329648
602,Hotel Daniel Paris,"8 Rue Frédéric Bastiat, 75008 Paris, France, Paris, Île-de-France 75008, FRA",48.8728492,2.3073663
603,Best Western Amiral Hotel,"4 Rue du Docteur Laurent, 75013 Paris, France, Paris, Île-de-France 75013, FRA",48.8252307,2.3569005
604,Hotel le Lapin Blanc,"41 Boulevard Saint-Michel, 75005 Paris, France, Paris, Île-de-France 75005, FRA",48.8491801,2.3423357
605,InterContinental Paris Le Grand,"2 Rue Scribe, 75009 Paris, France, Paris, Île-de-France 75009, FRA",48.8708391,2.3303651
606,H tel Fabric,"94 Boulevard Richard Lenoir, 75011 Paris, France, Paris, Île-de-France 75011, FRA",48.8629329,2.3723823
607,Le 7 Eiffel Hotel,"17 Rue Amélie, 75007 Paris, France, Paris, Île-de-France 75007, FRA",48.8585193,2.3077243
608,Best Western Plus de Neuville Arc de Triomphe,"3 Rue Verniquet, 75017 Paris, France, Paris, Île-de-France 75017, FRA",48.8869128,2.3004034
609,Hotel Atmospheres,"11 Passage du Clos-Bruneau, 75005 Paris, France, Paris, Île-de-France 75005, FRA",48.8485387,2.3479852
610,Splendide Royal Paris,"18 Rue du Cirque, 75008 Paris, France, Paris, Île-de-France 75008, FRA",48.8709627,2.3154141
611,Hotel Saint Dominique,"62 Rue Saint-Dominique, 75007 Paris, France, Paris, Île-de-France 75007, FRA",48.8599998,2.3087425
612,Novotel Suites Paris Nord 18 me,"3 Impasse Marteau, 93210 Saint-Denis, France, Saint-Denis, Île-de-France 93210, FRA",48.9015941,2.3597783
613,Mercure Tour Eiffel Grenelle,"68 Boulevard de Grenelle, 75015 Paris, France, Paris, Île-de-France 75015, FRA",48.850448,2.2928845
614,Hotel Monsieur,"62 Rue des Mathurins, 75008 Paris, France, Paris, Île-de-France 75008, FRA",48.8735135,2.3217457
615,Mercure Paris Notre Dame Saint Germain des Pr s,"20 Rue du Sommerard, 75005 Paris, France, Paris, Île-de-France 75005, FRA",48.8503074,2.3450612
616,Villa Montparnasse,"13 Rue Froidevaux, 75014 Paris, France, Paris, Île-de-France 75014, FRA",48.8349272,2.3295913
617,H tel Vernet,"25 Rue Vernet, 75008 Paris, France, Paris, Île-de-France 75008, FRA",48.871859,2.2978177
618,Grand Pigalle Hotel,"29 Rue Victor Massé, 75009 Paris, France, Paris, Île-de-France 75009, FRA",48.880856,2.3375085
619,Napoleon Paris,"38 Avenue de Friedland, 75008 Paris, France, Paris, Île-de-France 75008, FRA",48.8743885,2.2980915
620,Montfleuri,"21 Avenue de la Grande Armée, 75116 Paris, France, Paris, Île-de-France 75116, FRA",48.8747153,2.2906388
621,Lyric H tel Paris,"2 Rue de Gramont, 75002 Paris, France, Paris, Île-de-France 75002, FRA",48.8690126,2.3368708
622,9Hotel Republique,"9 Rue Pierre Chausson, 75010 Paris, France, Paris, Île-de-France 75010, FRA",48.8708419,2.3605864
623,H tel Aiglon Esprit de France,"2 Boulevard Edgar Quinet, 75014 Paris, France, Paris, Île-de-France 75014, FRA",48.8396623,2.3300582
624,Maison Albar H tel Paris Champs Elys es ex Mac Mahon,"1B Avenue Mac Mahon, 75017 Paris, France, Paris, Île-de-France 75017, FRA",48.8753837,2.2944651
625,Derby Alma,"8 Avenue Rapp, 75007 Paris, France, Paris, Île-de-France 75007, FRA",48.8605031,2.3006606
626,H tel Mayfair Paris,"3 Rue Rouget de Lisle, 75001 Paris, France, Paris, Île-de-France 75001, FRA",48.8661363,2.3260648
627,Garden Elys e,"12 Rue Saint-Didier, 75116 Paris, France, Paris, Île-de-France 75116, FRA",48.8663444,2.2881979
628,Best Western Allegro Nation,"4 Rue Mousset-Robert, 75012 Paris, France, Paris, Île-de-France 75012, FRA",48.8430891,2.4049867
629,Best Western Mercedes Arc de Triomphe,"17 Rue Brémontier, 75017 Paris, France, Paris, Île-de-France 75017, FRA",48.8848292,2.3035189
630,Le Narcisse Blanc Spa,"19 Boulevard de La-Tour-Maubourg, 75007 Paris, France, Paris, Île-de-France 75007, FRA",48.8605125,2.3106533
631,H tel Saint Paul Rive Gauche,"43 Rue Monsieur le Prince, 75006 Paris, France, Paris, Île-de-France 75006, FRA",48.8496819,2.3402806
632,Hotel Villa Lafayette Paris IX,"46 Rue de Trévise, 75009 Paris, France, Paris, Île-de-France 75009, FRA",48.8760884,2.3456465
633,Mercure Paris Tour Eiffel Pont Mirabeau,"10 Avenue Émile Zola, 75015 Paris, France, Paris, Île-de-France 75015, FRA",48.8460269,2.2788281
634,Au Manoir Saint Germain,"153 Boulevard Saint-Germain, 75006 Paris, France, Paris, Île-de-France 75006, FRA",48.853688,2.3322667
635,R Kipling by Happyculture,"1 Rue de Calais, 75009 Paris, France, Paris, Île-de-France 75009, FRA",48.8820838,2.3315849
636,La Maison Favart,"5 Rue de Marivaux, 75002 Paris, France, Paris, Île-de-France 75002, FRA",48.870808,2.3372737
637,Best Western Premier Op ra Opal,"19 Rue Tronchet, 75008 Paris, France, Paris, Île-de-France 75008, FRA",48.8722588,2.3257608
638,Trinit Haussmann,"1 Cité Pigalle, 75009 Paris, France, Paris, Île-de-France 75009, FRA",48.8800565,2.3342353
639,Mercure Paris Bastille Saint Antoine,"9 Passage Brulon, 75012 Paris, France, Paris, Île-de-France 75012, FRA",48.849574,2.3798518
640,H tel Monna Lisa Champs Elys es,"61 Rue de l'Arcade, 75008 Paris, France, Paris, Île-de-France 75008, FRA",48.874853,2.3245798
641,Villa Eugenie,"86 Rue Dulong, 75017 Paris, France, Paris, Île-de-France 75017, FRA",48.8871283,2.314205
642,Sofitel Paris Baltimore Tour Eiffel,"88B Avenue Kléber, 75116 Paris, France, Paris, Île-de-France 75116, FRA",48.8663089,2.289609
643,Mercure Paris Pigalle Sacre Coeur,"21 Boulevard de Clichy, 75009 Paris, France, Paris, Île-de-France 75009, FRA",48.8823398,2.3364764
644,Hotel Ares Eiffel,"7 Rue du Général de Larminat, 75015 Paris, France, Paris, Île-de-France 75015, FRA",48.8503276,2.2982022
645,H tel de Jos phine BONAPARTE,"8 Rue de Sévigné, 75004 Paris, France, Paris, Île-de-France 75004, FRA",48.8555319,2.3621212
646,Mercure Paris Op ra Faubourg Montmartre,"5 Rue de Montyon, 75009 Paris, France, Paris, Île-de-France 75009, FRA",48.8729639,2.3444899
647,Hotel Le Mareuil,"51 Rue de Malte, 75011 Paris, France, Paris, Île-de-France 75011, FRA",48.8659899,2.3674149
648,D clic Hotel,"17 Rue Duhesme, 75018 Paris, France, Paris, Île-de-France 75018, FRA",48.8908018,2.3380204
649,Gardette Park Hotel,"1 Rue du Général Blaise, 75011 Paris, France, Paris, Île-de-France 75011, FRA",48.8610265,2.3788974
650,Amarante Champs Elys es,"19 Rue Vernet, 75008 Paris, France, Paris, Île-de-France 75008, FRA",48.8717649,2.2983855
651,H tel Juliana Paris,"10 Rue Cognacq-Jay, 75007 Paris, France, Paris, Île-de-France 75007, FRA",48.8619373,2.3040298
652,Mercure Paris Opera Garnier,"4 Rue de l'Isly, 75008 Paris, France, Paris, Île-de-France 75008, FRA",48.8749511,2.3259532
653,Acad mie H tel Saint Germain,"2 Rue Perronet, 75007 Paris, France, Paris, Île-de-France 75007, FRA",48.855263,2.3305901
654,Millennium Hotel Paris Opera,"12 Boulevard Haussmann, 75009 Paris, France, Paris, Île-de-France 75009, FRA",48.8724588,2.3378004
655,Maison Albar Hotel Paris C line,"25 Rue du Pont Neuf, 75001 Paris, France, Paris, Île-de-France 75001, FRA",48.8606187,2.344401
656,Renaissance Paris Le Parc Trocadero Hotel,"57 Avenue Raymond Poincaré, 75116 Paris, France, Paris, Île-de-France 75116, FRA",48.8673099,2.2856528
657,Hotel Dupond Smith,"2 Rue des Guillemites, 75004 Paris, France, Paris, Île-de-France 75004, FRA",48.857898,2.3571978
658,Mercure Paris Porte d Orleans,"13 Rue François Ory, 92120 Montrouge, France, Montrouge, Île-de-France 92120, FRA",48.8178079,2.3293636
659,Maxim Op ra,"13 Rue Geoffroy Marie, 75009 Paris, France, Paris, Île-de-France 75009, FRA",48.8738557,2.3444232
660,Hotel Les Bains Paris,"7 Rue du Bourg-l'Abbé, 75003 Paris, France, Paris, Île-de-France 75003, FRA",48.863828,2.3519345
661,H tel De Sers Champs Elys es Paris,"41 Avenue Pierre 1er de Serbie, 75008 Paris, France, Paris, Île-de-France 75008, FRA",48.8683593,2.3002117
662,Hotel Panache,"1 Rue Geoffroy Marie, 75009 Paris, France, Paris, Île-de-France 75009, FRA",48.8732543,2.343239
663,La Clef Tour Eiffel,"83 Avenue Kléber, 75116 Paris, France, Paris, Île-de-France 75116, FRA",48.8647019,2.2886425
664,Hotel West End,"7 Rue Clément Marot, 75008 Paris, France, Paris, Île-de-France 75008, FRA",48.8671391,2.3038447
665,Little Palace Hotel,"4 Rue Salomon de Caus, 75003 Paris, France, Paris, Île-de-France 75003, FRA",48.8675674,2.3539896
666,Hotel Le Squara,"3 Rue Lepic, 75018 Paris, France, Paris, Île-de-France 75018, FRA",48.884165,2.3328261
667,Le Tourville Eiffel,"16 Avenue de Tourville, 75007 Paris, France, Paris, Île-de-France 75007, FRA",48.8542681,2.3078116
668,Hotel Spa La Belle Juliette,"92 Rue du Cherche-Midi, 75006 Paris, France, Paris, Île-de-France 75006, FRA",48.8474426,2.3223783
669,Monhotel Lounge SPA,"3 Rue d'Argentine, 75116 Paris, France, Paris, Île-de-France 75116, FRA",48.8743481,2.2897334
670,H tel De Castiglione,"40 Rue du Faubourg Saint-Honoré, 75008 Paris, France, Paris, Île-de-France 75008, FRA",48.8691758,2.3205807
671,H tel Paris Bastille Boutet MGallery by Sofitel,"22 Rue Faidherbe, 75011 Paris, France, Paris, Île-de-France 75011, FRA",48.8519215,2.3839993
672,Le Mathurin Hotel Spa,"43 Rue des Mathurins, 75008 Paris, France, Paris, Île-de-France 75008, FRA",48.8732068,2.3239015
673,Timhotel Op ra Blanche Fontaine,"34 Rue Pierre Fontaine, 75009 Paris, France, Paris, Île-de-France 75009, FRA",48.8825781,2.3334805
674,Le 123 Elysees Astotel,"123 Rue du Faubourg Saint-Honoré, 75008 Paris, France, Paris, Île-de-France 75008, FRA",48.8730823,2.309659
675,Hotel Chavanel,"22 Rue Tronchet, 75008 Paris, France, Paris, Île-de-France 75008, FRA",48.8721692,2.3262681
676,AC Hotel Paris Porte Maillot by Marriott,"8 Rue Gustave Charpentier, 75017 Paris, France, Paris, Île-de-France 75017, FRA",48.8820046,2.2818538
677,Select Hotel,"2 Rue Victor Cousin, 75005 Paris, France, Paris, Île-de-France 75005, FRA",48.8483053,2.3425596
678,Hotel Le Sainte Beuve,"9 Rue Sainte-Beuve, 75006 Paris, France, Paris, Île-de-France 75006, FRA",48.8438998,2.3294858
679,H tel Bel Ami,"7 Rue Saint-Benoît, 75006 Paris, France, Paris, Île-de-France 75006, FRA",48.8550298,2.3332104
680,Renaissance Paris Arc de Triomphe Hotel,"39 Avenue de Wagram, 75017 Paris, France, Paris, Île-de-France 75017, FRA",48.8772093,2.2968266
681,Hotel Eug ne en Ville,"6 Rue Buffault, 75009 Paris, France, Paris, Île-de-France 75009, FRA",48.8750119,2.3416769
682,Le Belmont Champs Elys es,"30 Rue de Bassano, 75116 Paris, France, Paris, Île-de-France 75116, FRA",48.8691984,2.2979052
683,Hotel De Vigny,"11B Rue Balzac, 75008 Paris, France, Paris, Île-de-France 75008, FRA",48.8738672,2.3005894
684,Le Saint Hotel Paris,"3 Rue du Pré aux Clercs, 75007 Paris, France, Paris, Île-de-France 75007, FRA",48.8565421,2.3303504
685,Le Pavillon des Lettres,"12 Rue des Saussaies, 75008 Paris, France, Paris, Île-de-France 75008, FRA",48.8713699,2.3181191
686,Balmoral Champs Elys es,"6 Rue du Général Lanrezac, 75017 Paris, France, Paris, Île-de-France 75017, FRA",48.8759855,2.293938
687,Le Pradey,"7 Rue Saint-Roch, 75001 Paris, France, Paris, Île-de-France 75001, FRA",48.8645309,2.3315532
688,Le Senat,"10 Rue de Vaugirard, 75006 Paris, France, Paris, Île-de-France 75006, FRA",48.8491427,2.3397118
689,Hotel Monge,"55 Rue Monge, 75005 Paris, France, Paris, Île-de-France 75005, FRA",48.8447938,2.3524462
690,Hotel Mademoiselle,"7 Rue des Petits-Hôtels, 75010 Paris, France, Paris, Île-de-France 75010, FRA",48.8772493,2.3543043
691,Hotel Villa Saxe Eiffel,"9 Villa de Saxe, 75007 Paris, France, Paris, Île-de-France 75007, FRA",48.849758,2.3095213
692,Hilton Paris Opera,"108 Rue Saint-Lazare, 75008 Paris, France, Paris, Île-de-France 75008, FRA",48.8756604,2.3252075
693,Belfast,"10 Avenue Carnot, 75017 Paris, France, Paris, Île-de-France 75017, FRA",48.8756435,2.2938788
694,Plaza Tour Eiffel,"32B Rue Greuze, 75116 Paris, France, Paris, Île-de-France 75116, FRA",48.8645647,2.2821827
695,Hotel des Tuileries Relais du Silence,"10 Rue Saint-Hyacinthe, 75001 Paris, France, Paris, Île-de-France 75001, FRA",48.8661705,2.331561
696,Best Western Le Jardin de Cluny,"4 Rue de Latran, 75005 Paris, France, Paris, Île-de-France 75005, FRA",48.8497553,2.3467616
697,Le Metropolitan a Tribute Portfolio Hotel,"86 Rue de Longchamp, 75116 Paris, France, Paris, Île-de-France 75116, FRA",48.8656973,2.2829776
698,Nell Hotel Suites,"60 Rue Richer, 75009 Paris, France, Paris, Île-de-France 75009, FRA",48.8741002,2.3426357
699,Mercure Vaugirard Paris Porte De Versailles,"69 Boulevard Victor, 75015 Paris, France, Paris, Île-de-France 75015, FRA",48.8330649,2.2879617
