,Name,Address,Latitude,Longitude
200,AC Hotel Barcelona Forum a Marriott Lifestyle Hotel,"Passeig del Taulat, 276, 08019 Barcelona (Barcelona), Espanya, Barcelona, Catalunya 08019, ESP",41.4101306,2.2188047
201,Vincci Bit,"Passatge Pallars, 08019 Barcelona (Barcelona), Espanya, Barcelona, Catalunya 08019, ESP",41.4114188,2.211756
202,Hotel SB Icaria Barcelona,"Avinguda d'Icària, 195, 08005 Barcelona (Barcelona), Espanya, Barcelona, Catalunya 08005, ESP",41.3935591,2.1993915
203,Axel Hotel Barcelona Urban Spa Adults Only,"Carrer d'Aribau, 33, 08011 Barcelona (Barcelona), Espanya, Barcelona, Catalunya 08011, ESP",41.3873478,2.1603987
204,Acta Atrium Palace,"Gran Via de les Corts Catalanes, 656, 08010 Barcelona (Barcelona), Espanya, Barcelona, Catalunya 08010, ESP",41.390913,2.1706981
205,Sansi Pedralbes,"Avinguda de Pearson, 1, 08034 Barcelona (Barcelona), Espanya, Barcelona, Catalunya 08034, ESP",41.39367,2.1115418
206,Crowne Plaza Barcelona Fira Center,"Avinguda de Rius i Taulet, 3, 08004 Barcelona (Barcelona), Espanya, Barcelona, Catalunya 08004, ESP",41.3725246,2.1540788
207,Exe Laietana Palace,"Via Laietana, 17, 08003 Barcelona (Barcelona), Espanya, Barcelona, Catalunya 08003, ESP",41.3833541,2.1794038
208,U232 Hotel,"Carrer del Comte d'Urgell, 230, 08036 Barcelona (Barcelona), Espanya, Barcelona, Catalunya 08036, ESP",41.3895237,2.1490307
209,Alma Barcelona GL,"Carrer de Mallorca, 269, 08008 Barcelona (Barcelona), Espanya, Barcelona, Catalunya 08008, ESP",41.3945074,2.1632659
210,Eurostars Cristal Palace,"Carrer de la Diputació, 257, 08007 Barcelona (Barcelona), Espanya, Barcelona, Catalunya 08007, ESP",41.3897945,2.1660575
211,The Level at Melia Barcelona Sky,"Carrer de Lope de Vega, 141, 08005 Barcelona (Barcelona), Espanya, Barcelona, Catalunya 08005, ESP",41.406146,2.2008636
212,ABaC Restaurant Hotel Barcelona GL Monumento,"08022 Barcelona (Barcelona), Espanya, Barcelona, Catalunya 08022, ESP",41.4106944,2.136294
213,TWO Hotel Barcelona by Axel 4 Sup Adults Only,"Carrer de Calàbria, 90, 08015 Barcelona (Barcelona), Espanya, Barcelona, Catalunya 08015, ESP",41.37913,2.1561186
214,Hotel Espa a Ramblas,"Carrer de Sant Pau, 11, 08001 Barcelona (Barcelona), Espanya, Barcelona, Catalunya 08001, ESP",41.3799209,2.1728181
215,Hotel DO Pla a Reial G L,"Plaça Reial, 1, 08002 Barcelona (Barcelona), Espanya, Barcelona, Catalunya 08002, ESP",41.3799929,2.1748256
216,Room Mate Gerard,"Carrer d'Ausiàs March, 42, 08010 Barcelona (Barcelona), Espanya, Barcelona, Catalunya 08010, ESP",41.3919114,2.1765438
217,Aparthotel Mariano Cubi Barcelona,"Carrer de Marià Cubí, 62, 08006 Barcelona (Barcelona), Espanya, Barcelona, Catalunya 08006, ESP",41.3982129,2.1494179
218,Condes de Barcelona,"Passeig de Gràcia, 73, 08008 Barcelona (Barcelona), Espanya, Barcelona, Catalunya 08008, ESP",41.3935497,2.1627098
219,Roger de Ll ria,"Carrer de Roger de Llúria, 28, 08010 Barcelona (Barcelona), Espanya, Barcelona, Catalunya 08010, ESP",41.3910786,2.1717285
220,H10 Port Vell 4 Sup,"Pas de Sota Muralla, 9, 08003 Barcelona (Barcelona), Espanya, Barcelona, Catalunya 08003, ESP",41.3815625,2.1838458
221,Upper Diagonal,"Carrer del Marquès de Mulhacén, 2, 08034 Barcelona (Barcelona), Espanya, Barcelona, Catalunya 08034, ESP",41.39038,2.121
222,Hotel Garbi Millenni,"Carrer de les Flors, 24, 08001 Barcelona (Barcelona), Espanya, Barcelona, Catalunya 08001, ESP",41.3759896,2.167148
223,K K Hotel Picasso,"Passeig de Picasso, 26, 08003 Barcelona (Barcelona), Espanya, Barcelona, Catalunya 08003, ESP",41.3866227,2.1840722
224,Guitart Grand Passage,"Carrer de Muntaner, 212, 08036 Barcelona (Barcelona), Espanya, Barcelona, Catalunya 08036, ESP",41.3936071,2.1504611
225,H10 Cubik 4 Sup,"Via Laietana, 69, 08003 Barcelona (Barcelona), Espanya, Barcelona, Catalunya 08003, ESP",41.388024,2.1731556
226,Barcel Raval,"Rambla del Raval, 17, 08001 Barcelona (Barcelona), Espanya, Barcelona, Catalunya 08001, ESP",41.3790126,2.1696339
227,Gran Hotel La Florida,"Carretera de Vallvidrera al Tibidabo, 87, 08035 Barcelona (Barcelona), Espanya, Barcelona, Catalunya 08035, ESP",41.4253332,2.1211028
228,Abba Garden,"Carrer de Tenerife, 08950 Esplugues de Llobregat (Barcelona), Espanya, Esplugues de Llobregat, Catalunya 08950, ESP",41.3854716,2.1018835
229,Barcelona Hotel Colonial,"Via Laietana, 3, 08003 Barcelona (Barcelona), Espanya, Barcelona, Catalunya 08003, ESP",41.3822909,2.1807447
230,Mandarin Oriental Barcelona,"Passeig de Gràcia, 40, 08007 Barcelona (Barcelona), Espanya, Barcelona, Catalunya 08007, ESP",41.391393,2.1668467
231,Hotel Neri,"Carrer de Sant Felip Neri, 1, 08002 Barcelona (Barcelona), Espanya, Barcelona, Catalunya 08002, ESP",41.3832498,2.1753483
232,H10 Itaca,"Avinguda de Roma, 22, 08015 Barcelona (Barcelona), Espanya, Barcelona, Catalunya 08015, ESP",41.3810311,2.1455516
233,Hotel Regina,"Carrer de Bergara, 4, 08002 Barcelona (Barcelona), Espanya, Barcelona, Catalunya 08002, ESP",41.3858891,2.1681652
234,Hotel Gran Derby Suites,"Carrer de Loreto, 28, 08029 Barcelona (Barcelona), Espanya, Barcelona, Catalunya 08029, ESP",41.3900104,2.1422396
235,Evenia Rossello,"Carrer del Rosselló, 191, 08036 Barcelona (Barcelona), Espanya, Barcelona, Catalunya 08036, ESP",41.3920254,2.1554675
236,Vincci Mae,"Avinguda Diagonal, 594, 08021 Barcelona (Barcelona), Espanya, Barcelona, Catalunya 08021, ESP",41.3933943,2.1461315
237,Hotel Spa Villa Olimpica Suites,"Carrer de Pallars, 119, 08018 Barcelona (Barcelona), Espanya, Barcelona, Catalunya 08018, ESP",41.3971434,2.1921947
238,Vilana Hotel,"Carrer de Vilana, 7, 08017 Barcelona (Barcelona), Espanya, Barcelona, Catalunya 08017, ESP",41.4047934,2.1288527
239,Mercure Barcelona Condor,"Via Augusta, 127, 08006 Barcelona (Barcelona), Espanya, Barcelona, Catalunya 08006, ESP",41.3999934,2.1452467
240,NH Sants Barcelona,"Carrer de Numància, 72, 08029 Barcelona (Barcelona), Espanya, Barcelona, Catalunya 08029, ESP",41.384591,2.1378107
241,Pestana Arena Barcelona,"Carrer del Consell de Cent, 53, 08014 Barcelona (Barcelona), Espanya, Barcelona, Catalunya 08014, ESP",41.376801,2.1460443
242,Petit Palace Boqueria Garden,"Carrer d'en Aroles, 1, 08002 Barcelona (Barcelona), Espanya, Barcelona, Catalunya 08002, ESP",41.3812223,2.1739622
243,Vincci Maritimo,"Parc de Diagonal-Mar, 08019 Barcelona (Barcelona), Espanya, Barcelona, Catalunya 08019, ESP",41.4082054,2.2124626
244,Pol Grace Hotel,"Carrer de Guillem Tell, 49, 08006 Barcelona (Barcelona), Espanya, Barcelona, Catalunya 08006, ESP",41.4017465,2.1477365
245,Ohla Barcelona,"Via Laietana, 49, 08002 Barcelona (Barcelona), Espanya, Barcelona, Catalunya 08002, ESP",41.3870479,2.174336
246,H10 Art Gallery 4 Sup,"Carrer d'Enric Granados, 64, 08008 Barcelona (Barcelona), Espanya, Barcelona, Catalunya 08008, ESP",41.392018,2.157066
247,Fairmont Rey Juan Carlos I,"Avinguda Diagonal, 661, 08028 Barcelona (Barcelona), Espanya, Barcelona, Catalunya 08028, ESP",41.3835246,2.1096141
248,Royal Ramblas,"Carrer la Rambla, 117, 08002 Barcelona (Barcelona), Espanya, Barcelona, Catalunya 08002, ESP",41.3842838,2.1707092
249,Hotel America Barcelona,"Carrer d'Enric Granados, 58, 08008 Barcelona (Barcelona), Espanya, Barcelona, Catalunya 08008, ESP",41.3919083,2.1573318
250,Aparthotel Atenea Barcelona,"Carrer de Joan Güell, 209, 08028 Barcelona (Barcelona), Espanya, Barcelona, Catalunya 08028, ESP",41.3862689,2.1291786
251,Catalonia Atenas,"Avinguda Meridiana, 151, 08026 Barcelona (Barcelona), Espanya, Barcelona, Catalunya 08026, ESP",41.4110056,2.1866009
252,NH Hesperia Barcelona del Mar,"Carrer d'Espronceda, 6, 08005 Barcelona (Barcelona), Espanya, Barcelona, Catalunya 08005, ESP",41.4014399,2.2100745
253,Hotel Abbot,"Avinguda de Roma, 23, 08029 Barcelona (Barcelona), Espanya, Barcelona, Catalunya 08029, ESP",41.3815028,2.1449138
254,Hotel Casa Bonay,"Gran Via de les Corts Catalanes, 700, 08010 Barcelona (Barcelona), Espanya, Barcelona, Catalunya 08010, ESP",41.3935967,2.1742718
255,Capri by Fraser Barcelona,"Carrer dels Almogàvers, 08018 Barcelona (Barcelona), Espanya, Barcelona, Catalunya 08018, ESP",41.3976233,2.188975
256,The Mirror Barcelona,"Carrer de Còrsega, 255, 08036 Barcelona (Barcelona), Espanya, Barcelona, Catalunya 08036, ESP",41.3930406,2.1545393
257,Room Mate Carla,"Carrer de Mallorca, 288, 08037 Barcelona (Barcelona), Espanya, Barcelona, Catalunya 08037, ESP",41.3962658,2.1662153
258,Catalonia Park Putxet,"Carrer del Putget, 68, 08023 Barcelona (Barcelona), Espanya, Barcelona, Catalunya 08023, ESP",41.4072812,2.1443116
259,Avenida Palace,"Gran Via de les Corts Catalanes, 605, 08007 Barcelona (Barcelona), Espanya, Barcelona, Catalunya 08007, ESP",41.3891168,2.1671986
260,H10 Universitat,"Ronda de la Universitat, 21, 08007 Barcelona (Barcelona), Espanya, Barcelona, Catalunya 08007, ESP",41.3869565,2.1665338
261,Acta CITY47,"Carrer de Nicaragua, 47, 08029 Barcelona (Barcelona), Espanya, Barcelona, Catalunya 08029, ESP",41.383515,2.1407396
262,NH Collection Barcelona Constanza,"Carrer de Déu i Mata, 66, 08029 Barcelona (Barcelona), Espanya, Barcelona, Catalunya 08029, ESP",41.3885274,2.1360471
263,AC Hotel Diagonal L Illa a Marriott Lifestyle Hotel,"Avinguda Diagonal, 08029 Barcelona (Barcelona), Espanya, Barcelona, Catalunya 08029, ESP",41.3899609,2.135684
264,Catalonia Ramblas 4 Sup,"Carrer de Pelai, 28, 08001 Barcelona (Barcelona), Espanya, Barcelona, Catalunya 08001, ESP",41.3856387,2.1668274
265,Hotel Rekord,"Carrer de Muntaner, 352, 08021 Barcelona (Barcelona), Espanya, Barcelona, Catalunya 08021, ESP",41.3985449,2.1438237
266,AC Hotel Victoria Suites a Marriott Lifestyle Hotel,"Carrer de Josep M. de Sagarra, 2, 08034 Barcelona (Barcelona), Espanya, Barcelona, Catalunya 08034, ESP",41.3893478,2.1209755
267,Hotel Barcelona Center,"Carrer de Balmes, 101, 08008 Barcelona (Barcelona), Espanya, Barcelona, Catalunya 08008, ESP",41.3917169,2.1592614
268,Hotel Casa Camper,"Carrer d'Elisabets, 11, 08001 Barcelona (Barcelona), Espanya, Barcelona, Catalunya 08001, ESP",41.3832414,2.1685298
269,Attica 21 Barcelona Mar,"Carrer de Provençals, 10, 08019 Barcelona (Barcelona), Espanya, Barcelona, Catalunya 08019, ESP",41.4052324,2.2117289
270,The Gates Diagonal Barcelona,"08018 Barcelona (Barcelona), Espanya, Barcelona, Catalunya 08018, ESP",41.4036219,2.1902808
271,Novotel Barcelona City,"08018 Barcelona (Barcelona), Espanya, Barcelona, Catalunya 08018, ESP",41.4038774,2.1911894
272,Gran Hotel Torre Catalunya,"Carrer del Rector Triadó, 108, 08014 Barcelona (Barcelona), Espanya, Barcelona, Catalunya 08014, ESP",41.3795572,2.1425457
273,Catalonia Port,"Carrer Ample, 1, 08002 Barcelona (Barcelona), Espanya, Barcelona, Catalunya 08002, ESP",41.378751,2.17873
274,Hotel Villa Emilia,"Carrer de Calàbria, 115, 08015 Barcelona (Barcelona), Espanya, Barcelona, Catalunya 08015, ESP",41.3802469,2.1541149
275,H10 Marina Barcelona,"Avinguda del Bogatell, 54, 08005 Barcelona (Barcelona), Espanya, Barcelona, Catalunya 08005, ESP",41.393227,2.1927427
276,Olivia Plaza Hotel,"Plaça de Catalunya, 19, 08002 Barcelona (Barcelona), Espanya, Barcelona, Catalunya 08002, ESP",41.3861459,2.1711594
277,Wilson Boutique Hotel,"Avinguda Diagonal, 566, 08021 Barcelona (Barcelona), Espanya, Barcelona, Catalunya 08021, ESP",41.3944029,2.150194
278,Hotel Palace GL,"Gran Via de les Corts Catalanes, 664, 08010 Barcelona (Barcelona), Espanya, Barcelona, Catalunya 08010, ESP",41.3916258,2.1716378
279,Catalonia Barcelona 505,"Carrer de Muntaner, 507, 08022 Barcelona (Barcelona), Espanya, Barcelona, Catalunya 08022, ESP",41.4034965,2.1370426
280,Sunotel Central,"Gran Via de les Corts Catalanes, 570, 08011 Barcelona (Barcelona), Espanya, Barcelona, Catalunya 08011, ESP",41.3841429,2.1616896
281,Catalonia Square 4 Sup,"Ronda de Sant Pere, 9, 08010 Barcelona (Barcelona), Espanya, Barcelona, Catalunya 08010, ESP",41.3885658,2.1712991
282,Eurostars Angli,"Carrer d'Anglí, 60, 08017 Barcelona (Barcelona), Espanya, Barcelona, Catalunya 08017, ESP",41.4031654,2.1231637
283,Catalonia Plaza Catalunya,"Carrer de Bergara, 11, 08002 Barcelona (Barcelona), Espanya, Barcelona, Catalunya 08002, ESP",41.3865289,2.1682919
284,Hotel 4 Barcelona,"Carrer de la Ciutat de Granada, 1, 08005 Barcelona (Barcelona), Espanya, Barcelona, Catalunya 08005, ESP",41.3959587,2.2008981
285,Hotel Ronda Lesseps,"Carrer de Ballester, 58, 08023 Barcelona (Barcelona), Espanya, Barcelona, Catalunya 08023, ESP",41.408641,2.1478143
286,Zenit Borrell,"Carrer del Comte Borrell, 208, 08029 Barcelona (Barcelona), Espanya, Barcelona, Catalunya 08029, ESP",41.3859873,2.1514021
287,Ilunion Bel Art,"Carrer de Lepant, 406, 08025 Barcelona (Barcelona), Espanya, Barcelona, Catalunya 08025, ESP",41.4101934,2.1695574
288,Hotel 1898,"Carrer la Rambla, 109, 08002 Barcelona (Barcelona), Espanya, Barcelona, Catalunya 08002, ESP",41.3834673,2.1712016
289,Petit Palace Museum,"Carrer de la Diputació, 250, 08007 Barcelona (Barcelona), Espanya, Barcelona, Catalunya 08007, ESP",41.3888014,2.1653738
290,Gran Hotel Barcino,"Carrer de Jaume I, 6, 08002 Barcelona (Barcelona), Espanya, Barcelona, Catalunya 08002, ESP",41.3830582,2.1778267
291,HCC St Moritz,"Carrer de la Diputació, 262, 08007 Barcelona (Barcelona), Espanya, Barcelona, Catalunya 08007, ESP",41.3908486,2.1680745
292,Hilton Diagonal Mar Barcelona,"Plaça de Willy Brandt, 1, 08019 Barcelona (Barcelona), Espanya, Barcelona, Catalunya 08019, ESP",41.4084334,2.2178205
293,Hotel Barcelona Universal,"Avinguda del Paral.lel, 76, 08001 Barcelona (Barcelona), Espanya, Barcelona, Catalunya 08001, ESP",41.375237,2.1684058
294,Hotel Vilamar,"Carrer de Vilamarí, 36, 08015 Barcelona (Barcelona), Espanya, Barcelona, Catalunya 08015, ESP",41.3766732,2.1524478
295,Hilton Barcelona,"Plaça de Valdívia, 08014 Barcelona (Barcelona), Espanya, Barcelona, Catalunya 08014, ESP",41.388682,2.1316368
296,Duquesa de Cardona,"Passeig de Colom, 12, 08002 Barcelona (Barcelona), Espanya, Barcelona, Catalunya 08002, ESP",41.3798658,2.1805271
297,Hotel Balmes,"Carrer de Mallorca, 216, 08008 Barcelona (Barcelona), Espanya, Barcelona, Catalunya 08008, ESP",41.3910621,2.1593373
298,Royal Passeig de Gracia,"Passeig de Gràcia, 84, 08008 Barcelona (Barcelona), Espanya, Barcelona, Catalunya 08008, ESP",41.3946775,2.162638
299,Ofelias Hotel 4 Sup,"Plaça de Fort Pienc, 5, 08013 Barcelona (Barcelona), Espanya, Barcelona, Catalunya 08013, ESP",41.3957584,2.1822402
