,Name,Address,Latitude,Longitude
100,Vincci Mae,"Avinguda Diagonal, 594, 08021 Barcelona (Barcelona), Espanya, Barcelona, Catalunya 08021, ESP",41.3933943,2.1461315
101,Hotel Spa Villa Olimpica Suites,"Carrer de Pallars, 119, 08018 Barcelona (Barcelona), Espanya, Barcelona, Catalunya 08018, ESP",41.3971434,2.1921947
102,Vilana Hotel,"Carrer de Vilana, 7, 08017 Barcelona (Barcelona), Espanya, Barcelona, Catalunya 08017, ESP",41.4047934,2.1288527
103,Mercure Barcelona Condor,"Via Augusta, 127, 08006 Barcelona (Barcelona), Espanya, Barcelona, Catalunya 08006, ESP",41.3999934,2.1452467
104,NH Sants Barcelona,"Carrer de Numància, 72, 08029 Barcelona (Barcelona), Espanya, Barcelona, Catalunya 08029, ESP",41.384591,2.1378107
105,Pestana Arena Barcelona,"Carrer del Consell de Cent, 53, 08014 Barcelona (Barcelona), Espanya, Barcelona, Catalunya 08014, ESP",41.376801,2.1460443
106,Petit Palace Boqueria Garden,"Carrer d'en Aroles, 1, 08002 Barcelona (Barcelona), Espanya, Barcelona, Catalunya 08002, ESP",41.3812223,2.1739622
107,Vincci Maritimo,"Parc de Diagonal-Mar, 08019 Barcelona (Barcelona), Espanya, Barcelona, Catalunya 08019, ESP",41.4082054,2.2124626
108,Pol Grace Hotel,"Carrer de Guillem Tell, 49, 08006 Barcelona (Barcelona), Espanya, Barcelona, Catalunya 08006, ESP",41.4017465,2.1477365
109,Ohla Barcelona,"Via Laietana, 49, 08002 Barcelona (Barcelona), Espanya, Barcelona, Catalunya 08002, ESP",41.3870479,2.174336
110,H10 Art Gallery 4 Sup,"Carrer d'Enric Granados, 64, 08008 Barcelona (Barcelona), Espanya, Barcelona, Catalunya 08008, ESP",41.392018,2.157066
111,Fairmont Rey Juan Carlos I,"Avinguda Diagonal, 661, 08028 Barcelona (Barcelona), Espanya, Barcelona, Catalunya 08028, ESP",41.3835246,2.1096141
112,Royal Ramblas,"Carrer la Rambla, 117, 08002 Barcelona (Barcelona), Espanya, Barcelona, Catalunya 08002, ESP",41.3842838,2.1707092
113,Hotel America Barcelona,"Carrer d'Enric Granados, 58, 08008 Barcelona (Barcelona), Espanya, Barcelona, Catalunya 08008, ESP",41.3919083,2.1573318
114,Aparthotel Atenea Barcelona,"Carrer de Joan Güell, 209, 08028 Barcelona (Barcelona), Espanya, Barcelona, Catalunya 08028, ESP",41.3862689,2.1291786
115,Catalonia Atenas,"Avinguda Meridiana, 151, 08026 Barcelona (Barcelona), Espanya, Barcelona, Catalunya 08026, ESP",41.4110056,2.1866009
116,NH Hesperia Barcelona del Mar,"Carrer d'Espronceda, 6, 08005 Barcelona (Barcelona), Espanya, Barcelona, Catalunya 08005, ESP",41.4014399,2.2100745
117,Hotel Abbot,"Avinguda de Roma, 23, 08029 Barcelona (Barcelona), Espanya, Barcelona, Catalunya 08029, ESP",41.3815028,2.1449138
118,Hotel Casa Bonay,"Gran Via de les Corts Catalanes, 700, 08010 Barcelona (Barcelona), Espanya, Barcelona, Catalunya 08010, ESP",41.3935967,2.1742718
119,Capri by Fraser Barcelona,"Carrer dels Almogàvers, 08018 Barcelona (Barcelona), Espanya, Barcelona, Catalunya 08018, ESP",41.3976233,2.188975
120,The Mirror Barcelona,"Carrer de Còrsega, 255, 08036 Barcelona (Barcelona), Espanya, Barcelona, Catalunya 08036, ESP",41.3930406,2.1545393
121,Room Mate Carla,"Carrer de Mallorca, 288, 08037 Barcelona (Barcelona), Espanya, Barcelona, Catalunya 08037, ESP",41.3962658,2.1662153
122,Catalonia Park Putxet,"Carrer del Putget, 68, 08023 Barcelona (Barcelona), Espanya, Barcelona, Catalunya 08023, ESP",41.4072812,2.1443116
123,Avenida Palace,"Gran Via de les Corts Catalanes, 605, 08007 Barcelona (Barcelona), Espanya, Barcelona, Catalunya 08007, ESP",41.3891168,2.1671986
124,H10 Universitat,"Ronda de la Universitat, 21, 08007 Barcelona (Barcelona), Espanya, Barcelona, Catalunya 08007, ESP",41.3869565,2.1665338
125,Acta CITY47,"Carrer de Nicaragua, 47, 08029 Barcelona (Barcelona), Espanya, Barcelona, Catalunya 08029, ESP",41.383515,2.1407396
126,NH Collection Barcelona Constanza,"Carrer de Déu i Mata, 66, 08029 Barcelona (Barcelona), Espanya, Barcelona, Catalunya 08029, ESP",41.3885274,2.1360471
127,AC Hotel Diagonal L Illa a Marriott Lifestyle Hotel,"Avinguda Diagonal, 08029 Barcelona (Barcelona), Espanya, Barcelona, Catalunya 08029, ESP",41.3899609,2.135684
128,Catalonia Ramblas 4 Sup,"Carrer de Pelai, 28, 08001 Barcelona (Barcelona), Espanya, Barcelona, Catalunya 08001, ESP",41.3856387,2.1668274
129,Hotel Rekord,"Carrer de Muntaner, 352, 08021 Barcelona (Barcelona), Espanya, Barcelona, Catalunya 08021, ESP",41.3985449,2.1438237
130,AC Hotel Victoria Suites a Marriott Lifestyle Hotel,"Carrer de Josep M. de Sagarra, 2, 08034 Barcelona (Barcelona), Espanya, Barcelona, Catalunya 08034, ESP",41.3893478,2.1209755
131,Hotel Barcelona Center,"Carrer de Balmes, 101, 08008 Barcelona (Barcelona), Espanya, Barcelona, Catalunya 08008, ESP",41.3917169,2.1592614
132,Hotel Casa Camper,"Carrer d'Elisabets, 11, 08001 Barcelona (Barcelona), Espanya, Barcelona, Catalunya 08001, ESP",41.3832414,2.1685298
133,Attica 21 Barcelona Mar,"Carrer de Provençals, 10, 08019 Barcelona (Barcelona), Espanya, Barcelona, Catalunya 08019, ESP",41.4052324,2.2117289
134,The Gates Diagonal Barcelona,"08018 Barcelona (Barcelona), Espanya, Barcelona, Catalunya 08018, ESP",41.4036219,2.1902808
135,Novotel Barcelona City,"08018 Barcelona (Barcelona), Espanya, Barcelona, Catalunya 08018, ESP",41.4038774,2.1911894
136,Gran Hotel Torre Catalunya,"Carrer del Rector Triadó, 108, 08014 Barcelona (Barcelona), Espanya, Barcelona, Catalunya 08014, ESP",41.3795572,2.1425457
137,Catalonia Port,"Carrer Ample, 1, 08002 Barcelona (Barcelona), Espanya, Barcelona, Catalunya 08002, ESP",41.378751,2.17873
138,Hotel Villa Emilia,"Carrer de Calàbria, 115, 08015 Barcelona (Barcelona), Espanya, Barcelona, Catalunya 08015, ESP",41.3802469,2.1541149
139,H10 Marina Barcelona,"Avinguda del Bogatell, 54, 08005 Barcelona (Barcelona), Espanya, Barcelona, Catalunya 08005, ESP",41.393227,2.1927427
140,Olivia Plaza Hotel,"Plaça de Catalunya, 19, 08002 Barcelona (Barcelona), Espanya, Barcelona, Catalunya 08002, ESP",41.3861459,2.1711594
141,Wilson Boutique Hotel,"Avinguda Diagonal, 566, 08021 Barcelona (Barcelona), Espanya, Barcelona, Catalunya 08021, ESP",41.3944029,2.150194
142,Hotel Palace GL,"Gran Via de les Corts Catalanes, 664, 08010 Barcelona (Barcelona), Espanya, Barcelona, Catalunya 08010, ESP",41.3916258,2.1716378
143,Catalonia Barcelona 505,"Carrer de Muntaner, 507, 08022 Barcelona (Barcelona), Espanya, Barcelona, Catalunya 08022, ESP",41.4034965,2.1370426
144,Sunotel Central,"Gran Via de les Corts Catalanes, 570, 08011 Barcelona (Barcelona), Espanya, Barcelona, Catalunya 08011, ESP",41.3841429,2.1616896
145,Catalonia Square 4 Sup,"Ronda de Sant Pere, 9, 08010 Barcelona (Barcelona), Espanya, Barcelona, Catalunya 08010, ESP",41.3885658,2.1712991
146,Eurostars Angli,"Carrer d'Anglí, 60, 08017 Barcelona (Barcelona), Espanya, Barcelona, Catalunya 08017, ESP",41.4031654,2.1231637
147,Catalonia Plaza Catalunya,"Carrer de Bergara, 11, 08002 Barcelona (Barcelona), Espanya, Barcelona, Catalunya 08002, ESP",41.3865289,2.1682919
148,Hotel 4 Barcelona,"Carrer de la Ciutat de Granada, 1, 08005 Barcelona (Barcelona), Espanya, Barcelona, Catalunya 08005, ESP",41.3959587,2.2008981
149,Hotel Ronda Lesseps,"Carrer de Ballester, 58, 08023 Barcelona (Barcelona), Espanya, Barcelona, Catalunya 08023, ESP",41.408641,2.1478143
150,Zenit Borrell,"Carrer del Comte Borrell, 208, 08029 Barcelona (Barcelona), Espanya, Barcelona, Catalunya 08029, ESP",41.3859873,2.1514021
151,Ilunion Bel Art,"Carrer de Lepant, 406, 08025 Barcelona (Barcelona), Espanya, Barcelona, Catalunya 08025, ESP",41.4101934,2.1695574
152,Hotel 1898,"Carrer la Rambla, 109, 08002 Barcelona (Barcelona), Espanya, Barcelona, Catalunya 08002, ESP",41.3834673,2.1712016
153,Petit Palace Museum,"Carrer de la Diputació, 250, 08007 Barcelona (Barcelona), Espanya, Barcelona, Catalunya 08007, ESP",41.3888014,2.1653738
154,Gran Hotel Barcino,"Carrer de Jaume I, 6, 08002 Barcelona (Barcelona), Espanya, Barcelona, Catalunya 08002, ESP",41.3830582,2.1778267
155,HCC St Moritz,"Carrer de la Diputació, 262, 08007 Barcelona (Barcelona), Espanya, Barcelona, Catalunya 08007, ESP",41.3908486,2.1680745
156,Hilton Diagonal Mar Barcelona,"Plaça de Willy Brandt, 1, 08019 Barcelona (Barcelona), Espanya, Barcelona, Catalunya 08019, ESP",41.4084334,2.2178205
157,Hotel Barcelona Universal,"Avinguda del Paral.lel, 76, 08001 Barcelona (Barcelona), Espanya, Barcelona, Catalunya 08001, ESP",41.375237,2.1684058
158,Hotel Vilamar,"Carrer de Vilamarí, 36, 08015 Barcelona (Barcelona), Espanya, Barcelona, Catalunya 08015, ESP",41.3766732,2.1524478
159,Hilton Barcelona,"Plaça de Valdívia, 08014 Barcelona (Barcelona), Espanya, Barcelona, Catalunya 08014, ESP",41.388682,2.1316368
160,Duquesa de Cardona,"Passeig de Colom, 12, 08002 Barcelona (Barcelona), Espanya, Barcelona, Catalunya 08002, ESP",41.3798658,2.1805271
161,Hotel Balmes,"Carrer de Mallorca, 216, 08008 Barcelona (Barcelona), Espanya, Barcelona, Catalunya 08008, ESP",41.3910621,2.1593373
162,Royal Passeig de Gracia,"Passeig de Gràcia, 84, 08008 Barcelona (Barcelona), Espanya, Barcelona, Catalunya 08008, ESP",41.3946775,2.162638
163,Ofelias Hotel 4 Sup,"Plaça de Fort Pienc, 5, 08013 Barcelona (Barcelona), Espanya, Barcelona, Catalunya 08013, ESP",41.3957584,2.1822402
164,Hotel Serhs Rivoli Rambla,"Carrer la Rambla, 128, 08002 Barcelona (Barcelona), Espanya, Barcelona, Catalunya 08002, ESP",41.3843222,2.1712893
165,Eurostars Bcn Design,"Passeig de Gràcia, 29, 08007 Barcelona (Barcelona), Espanya, Barcelona, Catalunya 08007, ESP",41.3907208,2.1660732
166,Hotel Well and Come,"Carrer de Girona, 158, 08037 Barcelona (Barcelona), Espanya, Barcelona, Catalunya 08037, ESP",41.3991773,2.1656134
167,NH Hesperia Barcelona Presidente,"Avinguda Diagonal, 570, 08021 Barcelona (Barcelona), Espanya, Barcelona, Catalunya 08021, ESP",41.3941338,2.1489569
168,Mercer House B ria BCN,"Carrer Civader, 2, 08003 Barcelona (Barcelona), Espanya, Barcelona, Catalunya 08003, ESP",41.3846844,2.1791065
169,Eurohotel Diagonal Port,"Carrer de Lope de Vega, 4, 08005 Barcelona (Barcelona), Espanya, Barcelona, Catalunya 08005, ESP",41.4006708,2.2087844
170,Negresco Princess 4 Sup,"Carrer de Roger de Llúria, 16, 08010 Barcelona (Barcelona), Espanya, Barcelona, Catalunya 08010, ESP",41.3905166,2.1725643
171,The One Barcelona GL,"Carrer de Provença, 277, 08037 Barcelona (Barcelona), Espanya, Barcelona, Catalunya 08037, ESP",41.3961448,2.1631674
172,Sunotel Club Central,"Carrer de València, 159, 08011 Barcelona (Barcelona), Espanya, Barcelona, Catalunya 08011, ESP",41.38793,2.1568061
173,Ohla Eixample,"Carrer de Còrsega, 289, 08008 Barcelona (Barcelona), Espanya, Barcelona, Catalunya 08008, ESP",41.3944574,2.1564353
174,Hotel The Serras,"Carrer de la Plata, 4, 08002 Barcelona (Barcelona), Espanya, Barcelona, Catalunya 08002, ESP",41.3801815,2.180688
175,Barcelona Princess,"Avinguda Diagonal, 1, 08019 Barcelona (Barcelona), Espanya, Barcelona, Catalunya 08019, ESP",41.4109715,2.2186535
176,NH Collection Barcelona Gran Hotel Calder n,"Carrer de la Diputació, 254B, 08007 Barcelona (Barcelona), Espanya, Barcelona, Catalunya 08007, ESP",41.3894654,2.1662651
177,Hotel Granados 83,"Carrer d'Enric Granados, 83, 08008 Barcelona (Barcelona), Espanya, Barcelona, Catalunya 08008, ESP",41.391843,2.156844
178,Hotel Balmoral,"Via Augusta, 5, 08006 Barcelona (Barcelona), Espanya, Barcelona, Catalunya 08006, ESP",41.3961294,2.1551626
179,Primero Primera,"Carrer del Doctor Carulla, 25, 08017 Barcelona (Barcelona), Espanya, Barcelona, Catalunya 08017, ESP",41.4002812,2.1297427
180,Cotton House Hotel Autograph Collection,"Gran Via de les Corts Catalanes, 670I, 08010 Barcelona (Barcelona), Espanya, Barcelona, Catalunya 08010, ESP",41.3915897,2.1720108
181,Mercer Hotel Barcelona,"Carrer de Lledó, 9, 08002 Barcelona (Barcelona), Espanya, Barcelona, Catalunya 08002, ESP",41.3827,2.1791999
182,Silken Concordia,"Avinguda del Paral.lel, 115, 08004 Barcelona (Barcelona), Espanya, Barcelona, Catalunya 08004, ESP",41.3747873,2.1611846
183,Barcel Sants,"Plaça dels Països Catalans, 08014 Barcelona (Barcelona), Espanya, Barcelona, Catalunya 08014, ESP",41.3798964,2.1412433
184,W Barcelona,"Plaça de la Rosa dels Vents, 1, 08039 Barcelona (Barcelona), Espanya, Barcelona, Catalunya 08039, ESP",41.368437,2.1901534
185,Catalonia Catedral,"Avinguda del Portal de l'Àngel, 3, 08002 Barcelona (Barcelona), Espanya, Barcelona, Catalunya 08002, ESP",41.3846637,2.1740902
186,Silken Gran Hotel Havana,"Gran Via de les Corts Catalanes, 647, 08010 Barcelona (Barcelona), Espanya, Barcelona, Catalunya 08010, ESP",41.3927101,2.1722139
187,Catalonia Diagonal Centro,"Carrer de Balmes, 142, 08008 Barcelona (Barcelona), Espanya, Barcelona, Catalunya 08008, ESP",41.3938632,2.1568039
188,The Wittmore Adults Only,"Carrer de Riudarenes, 9, 08002 Barcelona (Barcelona), Espanya, Barcelona, Catalunya 08002, ESP",41.380939,2.1796095
189,Catalonia Barcelona Plaza,"Gran Via de les Corts Catalanes, 08004 Barcelona (Barcelona), Espanya, Barcelona, Catalunya 08004, ESP",41.3750293,2.1491172
190,Olivia Balmes Hotel,"Carrer de Balmes, 115, 08008 Barcelona (Barcelona), Espanya, Barcelona, Catalunya 08008, ESP",41.392095,2.158493
191,NH Barcelona Stadium,"Travessera de les Corts, 146, 08028 Barcelona (Barcelona), Espanya, Barcelona, Catalunya 08028, ESP",41.3812574,2.1269078
192,The Corner Hotel,"Carrer de Mallorca, 178, 08036 Barcelona (Barcelona), Espanya, Barcelona, Catalunya 08036, ESP",41.3890578,2.1565948
193,Col n Hotel Barcelona,"Avinguda de la Catedral, 7, 08002 Barcelona (Barcelona), Espanya, Barcelona, Catalunya 08002, ESP",41.3849613,2.1756666
194,H10 Urquinaona Plaza,"Plaça d'Urquinaona, 2, 08010 Barcelona (Barcelona), Espanya, Barcelona, Catalunya 08010, ESP",41.3892128,2.1726015
195,Abba Sants,"Carrer de Numància, 32, 08029 Barcelona (Barcelona), Espanya, Barcelona, Catalunya 08029, ESP",41.3825777,2.1400103
